ONEWEB-0327             
1 49196U 21083L   23263.77384593 -.00036629  00000+0 -92992-1 0  9994
2 49196  87.9295 174.4173 0001482  58.1259 302.0017 13.18922637 98173
ONEWEB-0328             
1 49197U 21083M   23263.78162641  .00000608  00000+0  16309-2 0  9999
2 49197  87.9073 159.2773 0001738  68.0123 292.1191 13.13471504 99573
ONEWEB-0331             
1 49198U 21083N   23263.79262825  .00000177  00000+0  41688-3 0  9996
2 49198  87.9231 174.4381 0001677  74.3311 285.8006 13.18686261 98166
ONEWEB-0333             
1 49199U 21083P   23263.77632262  .00000428  00000+0  11374-2 0  9998
2 49199  87.9073 159.2804 0002042  77.4674 282.6684 13.13468420 99589
ONEWEB-0334             
1 49200U 21083Q   23263.81831783  .00000074  00000+0  14894-3 0  9993
2 49200  87.9166 113.6656 0002542  93.4897 266.6527 13.20770640104745
ONEWEB-0335             
1 49201U 21083R   23263.77208262  .00000416  00000+0  11055-2 0  9994
2 49201  87.9070 159.2708 0001848  69.7742 290.3586 13.13473111 99597
ONEWEB-0336             
1 49202U 21083S   23263.74033636 -.00000479  00000+0 -13462-2 0  9998
2 49202  87.9072 159.2745 0001973  76.9949 283.1400 13.13469751 99588
ONEWEB-0337             
1 49203U 21083T   23263.91667824 -.00028201  00000+0 -75772-1 0  9994
2 49203  87.9068 159.2434 0001731  69.8626 312.4764 13.15008326  5208
